[{"OBJECT_NAME":"IXPE","OBJECT_ID":"2021-121A","EPOCH":"2026-03-10T00:00:02.999808","MEAN_MOTION":15.09223379,"ECCENTRICITY":0.00072712,"INCLINATION":0.2307,"RA_OF_ASC_NODE":347.0223,"ARG_OF_PERICENTER":20.3591,"MEAN_ANOMALY":57.9535,"EPHEMERIS_TYPE":0,"CLASSIFICATION_TYPE":"U","NORAD_CAT_ID":49954,"ELEMENT_SET_NO":999,"REV_AT_EPOCH":584,"BSTAR":0.0008624183,"MEAN_MOTION_DOT":0.00015078,"MEAN_MOTION_DDOT":0},{"OBJECT_NAME":"STARLINK-3232","OBJECT_ID":"2022-001G","EPOCH":"2026-03-09T11:29:59.321184","MEAN_MOTION":15.08845152,"ECCENTRICITY":0.00010688,"INCLINATION":53.2179,"RA_OF_ASC_NODE":160.0731,"ARG_OF_PERICENTER":80.3687,"MEAN_ANOMALY":279.7426,"EPHEMERIS_TYPE":0,"CLASSIFICATION_TYPE":"U","NORAD_CAT_ID":50809,"ELEMENT_SET_NO":999,"REV_AT_EPOCH":23051,"BSTAR":0.00045475065,"MEAN_MOTION_DOT":6.958e-5,"MEAN_MOTION_DDOT":0}]
